CCSDS_OMM_VERS = 2.0
CREATION_DATE  = 
ORIGINATOR     = 

OBJECT_NAME    = ATLAS CENTAUR R/B
OBJECT_ID      = 1972-065B
CENTER_NAME    = EARTH
REF_FRAME      = TEME
TIME_SYSTEM    = UTC
MEAN_ELEMENT_THEORY = SGP/SGP4

EPOCH          = 2026-03-08T00:06:12.691584
MEAN_MOTION    = 14.77682406
ECCENTRICITY   = .00337363
INCLINATION    = 35.0023
RA_OF_ASC_NODE = 315.6312
ARG_OF_PERICENTER = 354.6289
MEAN_ANOMALY   = 5.4047

EPHEMERIS_TYPE = 0
CLASSIFICATION_TYPE = U
NORAD_CAT_ID   = 6155
ELEMENT_SET_NO = 999
REV_AT_EPOCH   = 84101
BSTAR          = .24693881E-3
MEAN_MOTION_DOT = .1791E-4
MEAN_MOTION_DDOT = 0

CCSDS_OMM_VERS = 2.0
CREATION_DATE  = 
ORIGINATOR     = 

OBJECT_NAME    = SL-8 R/B
OBJECT_ID      = 1975-112B
CENTER_NAME    = EARTH
REF_FRAME      = TEME
TIME_SYSTEM    = UTC
MEAN_ELEMENT_THEORY = SGP/SGP4

EPOCH          = 2026-03-09T07:03:56.726784
MEAN_MOTION    = 14.38203303
ECCENTRICITY   = .0014449
INCLINATION    = 74.0628
RA_OF_ASC_NODE = 19.6387
ARG_OF_PERICENTER = 113.0524
MEAN_ANOMALY   = 247.2155

EPHEMERIS_TYPE = 0
CLASSIFICATION_TYPE = U
NORAD_CAT_ID   = 8459
ELEMENT_SET_NO = 999
REV_AT_EPOCH   = 63181
BSTAR          = .11128E-3
MEAN_MOTION_DOT = .312E-5
MEAN_MOTION_DDOT = 0

CCSDS_OMM_VERS = 2.0
CREATION_DATE  = 
ORIGINATOR     = 

OBJECT_NAME    = SL-3 R/B
OBJECT_ID      = 1977-057B
CENTER_NAME    = EARTH
REF_FRAME      = TEME
TIME_SYSTEM    = UTC
MEAN_ELEMENT_THEORY = SGP/SGP4

EPOCH          = 2026-03-09T11:02:24.438048
MEAN_MOTION    = 15.45485896
ECCENTRICITY   = .0006156
INCLINATION    = 97.5776
RA_OF_ASC_NODE = 240.3706
ARG_OF_PERICENTER = 285.9682
MEAN_ANOMALY   = 74.0888

EPHEMERIS_TYPE = 0
CLASSIFICATION_TYPE = U
NORAD_CAT_ID   = 10114
ELEMENT_SET_NO = 999
REV_AT_EPOCH   = 66829
BSTAR          = .31746E-3
MEAN_MOTION_DOT = .15142E-3
MEAN_MOTION_DDOT = 0

CCSDS_OMM_VERS = 2.0
CREATION_DATE  = 
ORIGINATOR     = 

OBJECT_NAME    = SEASAT 1
OBJECT_ID      = 1978-064A
CENTER_NAME    = EARTH
REF_FRAME      = TEME
TIME_SYSTEM    = UTC
MEAN_ELEMENT_THEORY = SGP/SGP4

EPOCH          = 2026-03-09T10:14:47.991840
MEAN_MOTION    = 14.46160000
ECCENTRICITY   = .0002312
INCLINATION    = 108.0109
RA_OF_ASC_NODE = 124.9485
ARG_OF_PERICENTER = 286.1896
MEAN_ANOMALY   = 73.8995

EPHEMERIS_TYPE = 0
CLASSIFICATION_TYPE = U
NORAD_CAT_ID   = 10967
ELEMENT_SET_NO = 999
REV_AT_EPOCH   = 50647
BSTAR          = .12529E-3
MEAN_MOTION_DOT = .311E-5
MEAN_MOTION_DDOT = 0

CCSDS_OMM_VERS = 2.0
CREATION_DATE  = 
ORIGINATOR     = 

OBJECT_NAME    = SL-14 R/B
OBJECT_ID      = 1979-011B
CENTER_NAME    = EARTH
REF_FRAME      = TEME
TIME_SYSTEM    = UTC
MEAN_ELEMENT_THEORY = SGP/SGP4

EPOCH          = 2026-03-09T12:19:19.227936
MEAN_MOTION    = 14.91907893
ECCENTRICITY   = .0017412
INCLINATION    = 82.5209
RA_OF_ASC_NODE = 96.7383
ARG_OF_PERICENTER = 61.1039
MEAN_ANOMALY   = 299.1925

EPHEMERIS_TYPE = 0
CLASSIFICATION_TYPE = U
NORAD_CAT_ID   = 11267
ELEMENT_SET_NO = 999
REV_AT_EPOCH   = 52875
BSTAR          = .68103E-4
MEAN_MOTION_DOT = .716E-5
MEAN_MOTION_DDOT = 0

CCSDS_OMM_VERS = 2.0
CREATION_DATE  = 
ORIGINATOR     = 

OBJECT_NAME    = SL-8 R/B
OBJECT_ID      = 1979-089B
CENTER_NAME    = EARTH
REF_FRAME      = TEME
TIME_SYSTEM    = UTC
MEAN_ELEMENT_THEORY = SGP/SGP4

EPOCH          = 2026-03-09T12:53:53.849184
MEAN_MOTION    = 14.42350739
ECCENTRICITY   = .0017164
INCLINATION    = 74.0668
RA_OF_ASC_NODE = 91.3256
ARG_OF_PERICENTER = 264.0643
MEAN_ANOMALY   = 95.8558

EPHEMERIS_TYPE = 0
CLASSIFICATION_TYPE = U
NORAD_CAT_ID   = 11574
ELEMENT_SET_NO = 999
REV_AT_EPOCH   = 43608
BSTAR          = .11655E-3
MEAN_MOTION_DOT = .359E-5
MEAN_MOTION_DDOT = 0

CCSDS_OMM_VERS = 2.0
CREATION_DATE  = 
ORIGINATOR     = 

OBJECT_NAME    = SL-14 R/B
OBJECT_ID      = 1980-005B
CENTER_NAME    = EARTH
REF_FRAME      = TEME
TIME_SYSTEM    = UTC
MEAN_ELEMENT_THEORY = SGP/SGP4

EPOCH          = 2026-03-08T22:08:06.463392
MEAN_MOTION    = 14.90929439
ECCENTRICITY   = .00161248
INCLINATION    = 82.5145
RA_OF_ASC_NODE = 307.9643
ARG_OF_PERICENTER = 160.6969
MEAN_ANOMALY   = 199.4865

EPHEMERIS_TYPE = 0
CLASSIFICATION_TYPE = U
NORAD_CAT_ID   = 11672
ELEMENT_SET_NO = 999
REV_AT_EPOCH   = 47637
BSTAR          = .70873355E-4
MEAN_MOTION_DOT = .726E-5
MEAN_MOTION_DDOT = 0

CCSDS_OMM_VERS = 2.0
CREATION_DATE  = 
ORIGINATOR     = 

OBJECT_NAME    = SL-8 R/B
OBJECT_ID      = 1981-003B
CENTER_NAME    = EARTH
REF_FRAME      = TEME
TIME_SYSTEM    = UTC
MEAN_ELEMENT_THEORY = SGP/SGP4

EPOCH          = 2026-03-08T16:13:43.777632
MEAN_MOTION    = 15.10931025
ECCENTRICITY   = .02622843
INCLINATION    = 82.9386
RA_OF_ASC_NODE = 290.9611
ARG_OF_PERICENTER = 182.1568
MEAN_ANOMALY   = 177.8561

EPHEMERIS_TYPE = 0
CLASSIFICATION_TYPE = U
NORAD_CAT_ID   = 12139
ELEMENT_SET_NO = 999
REV_AT_EPOCH   = 31452
BSTAR          = .68849646E-3
MEAN_MOTION_DOT = .26821E-3
MEAN_MOTION_DDOT = 0

CCSDS_OMM_VERS = 2.0
CREATION_DATE  = 
ORIGINATOR     = 

OBJECT_NAME    = SL-3 R/B
OBJECT_ID      = 1981-046B
CENTER_NAME    = EARTH
REF_FRAME      = TEME
TIME_SYSTEM    = UTC
MEAN_ELEMENT_THEORY = SGP/SGP4

EPOCH          = 2026-03-09T11:02:24.522720
MEAN_MOTION    = 15.41988721
ECCENTRICITY   = .0019583
INCLINATION    = 81.2298
RA_OF_ASC_NODE = 290.0198
ARG_OF_PERICENTER = 23.1108
MEAN_ANOMALY   = 337.1010

EPHEMERIS_TYPE = 0
CLASSIFICATION_TYPE = U
NORAD_CAT_ID   = 12465
ELEMENT_SET_NO = 999
REV_AT_EPOCH   = 43839
BSTAR          = .31485E-3
MEAN_MOTION_DOT = .13542E-3
MEAN_MOTION_DDOT = 0

CCSDS_OMM_VERS = 2.0
CREATION_DATE  = 
ORIGINATOR     = 

OBJECT_NAME    = SL-3 R/B
OBJECT_ID      = 1981-103B
CENTER_NAME    = EARTH
REF_FRAME      = TEME
TIME_SYSTEM    = UTC
MEAN_ELEMENT_THEORY = SGP/SGP4

EPOCH          = 2026-03-09T12:13:15.972960
MEAN_MOTION    = 15.21373821
ECCENTRICITY   = .0012458
INCLINATION    = 81.1588
RA_OF_ASC_NODE = 213.6437
ARG_OF_PERICENTER = 287.5440
MEAN_ANOMALY   = 72.4429

EPHEMERIS_TYPE = 0
CLASSIFICATION_TYPE = U
NORAD_CAT_ID   = 12904
ELEMENT_SET_NO = 999
REV_AT_EPOCH   = 97320
BSTAR          = .27434E-3
MEAN_MOTION_DOT = .6186E-4
MEAN_MOTION_DDOT = 0

CCSDS_OMM_VERS = 2.0
CREATION_DATE  = 
ORIGINATOR     = 

OBJECT_NAME    = SL-3 R/B
OBJECT_ID      = 1982-013B
CENTER_NAME    = EARTH
REF_FRAME      = TEME
TIME_SYSTEM    = UTC
MEAN_ELEMENT_THEORY = SGP/SGP4

EPOCH          = 2026-03-09T12:24:59.782176
MEAN_MOTION    = 15.22016396
ECCENTRICITY   = .0022647
INCLINATION    = 81.1762
RA_OF_ASC_NODE = 160.9726
ARG_OF_PERICENTER = 178.0459
MEAN_ANOMALY   = 182.0866

EPHEMERIS_TYPE = 0
CLASSIFICATION_TYPE = U
NORAD_CAT_ID   = 13068
ELEMENT_SET_NO = 999
REV_AT_EPOCH   = 40432
BSTAR          = .25349E-3
MEAN_MOTION_DOT = .5856E-4
MEAN_MOTION_DDOT = 0

CCSDS_OMM_VERS = 2.0
CREATION_DATE  = 
ORIGINATOR     = 

OBJECT_NAME    = SL-3 R/B
OBJECT_ID      = 1982-039B
CENTER_NAME    = EARTH
REF_FRAME      = TEME
TIME_SYSTEM    = UTC
MEAN_ELEMENT_THEORY = SGP/SGP4

EPOCH          = 2026-03-09T10:59:33.678816
MEAN_MOTION    = 15.10079619
ECCENTRICITY   = .0029714
INCLINATION    = 81.1584
RA_OF_ASC_NODE = 216.2290
ARG_OF_PERICENTER = 325.2132
MEAN_ANOMALY   = 34.7150

EPHEMERIS_TYPE = 0
CLASSIFICATION_TYPE = U
NORAD_CAT_ID   = 13154
ELEMENT_SET_NO = 999
REV_AT_EPOCH   = 38160
BSTAR          = .20164E-3
MEAN_MOTION_DOT = .3339E-4
MEAN_MOTION_DDOT = 0

