ATLAS CENTAUR R/B       
1 06155U 72065B   26067.00431356  .00001791  00000+0  24694-3 0  9995
2 06155  35.0023 315.6312 0033736 354.6289   5.4047 14.77682406841011
SL-8 R/B                
1 08459U 75112B   26068.29440656  .00000312  00000+0  11128-3 0  9991
2 08459  74.0628  19.6387 0014449 113.0524 247.2155 14.38203303631819
SL-3 R/B                
1 10114U 77057B   26068.46000507  .00015142  00000+0  31746-3 0  9993
2 10114  97.5776 240.3706 0006156 285.9682  74.0888 15.45485896668291
SEASAT 1                
1 10967U 78064A   26068.42694435  .00000311  00000+0  12529-3 0  9993
2 10967 108.0109 124.9485 0002312 286.1896  73.8995 14.46160000506470
SL-14 R/B               
1 11267U 79011B   26068.51341699  .00000716  00000+0  68103-4 0  9990
2 11267  82.5209  96.7383 0017412  61.1039 299.1925 14.91907893528751
SL-8 R/B                
1 11574U 79089B   26068.53742881  .00000359  00000+0  11655-3 0  9998
2 11574  74.0668  91.3256 0017164 264.0643  95.8558 14.42350739436080
SL-14 R/B               
1 11672U 80005B   26067.92229703  .00000726  00000+0  70873-4 0  9998
2 11672  82.5145 307.9643 0016124 160.6969 199.4865 14.90929439476376
SL-8 R/B                
1 12139U 81003B   26067.67620113  .00026821  00000+0  68850-3 0  9993
2 12139  82.9386 290.9611 0262284 182.1568 177.8561 15.10931025314524
SL-3 R/B                
1 12465U 81046B   26068.46000605  .00013542  00000+0  31485-3 0  9998
2 12465  81.2298 290.0198 0019583  23.1108 337.1010 15.41988721438398
SL-3 R/B                
1 12904U 81103B   26068.50921265  .00006186  00000+0  27434-3 0  9994
2 12904  81.1588 213.6437 0012458 287.5440  72.4429 15.21373821973207
SL-3 R/B                
1 13068U 82013B   26068.51735859  .00005856  00000+0  25349-3 0  9996
2 13068  81.1762 160.9726 0022647 178.0459 182.0866 15.22016396404320
SL-3 R/B                
1 13154U 82039B   26068.45802869  .00003339  00000+0  20164-3 0  9993
2 13154  81.1584 216.2290 0029714 325.2132  34.7150 15.10079619381603
